{
  "norad_id": 53799,
  "name": "STARLINK-4710",
  "history": [
    {
      "epoch": "2026-03-28T16:32:35.254752Z",
      "apogee_km": 540.570634270065,
      "perigee_km": 538.9037033103532,
      "latitude_deg": 1.0268895499494655e-05,
      "longitude_deg": 104.6461749345185,
      "height_km": 540.6914684826905,
      "semi_major_axis_km": 6917.874168790208,
      "eccentricity": 0.00012048,
      "inclination_deg": 53.2177,
      "raan_deg": 178.8992,
      "arg_perigee_deg": 94.0142,
      "mean_anomaly_deg": 266.0988,
      "mean_motion_rev_day": 15.08842035
    },
    {
      "epoch": "2026-03-30T11:27:59.669280Z",
      "apogee_km": 540.8817828481979,
      "perigee_km": 538.6082900957317,
      "latitude_deg": -3.356480799586278e-05,
      "longitude_deg": 171.00361269179353,
      "height_km": 541.5927637303317,
      "semi_major_axis_km": 6917.882036471964,
      "eccentricity": 0.00016432,
      "inclination_deg": 53.2173,
      "raan_deg": 170.8712,
      "arg_perigee_deg": 146.8213,
      "mean_anomaly_deg": 213.2882,
      "mean_motion_rev_day": 15.08839461
    },
    {
      "epoch": "2026-03-30T22:35:42.259776Z",
      "apogee_km": 540.4933753470905,
      "perigee_km": 539.0182038886323,
      "latitude_deg": 7.459200910282734e-05,
      "longitude_deg": 1.5391020970086655,
      "height_km": 540.8218014045957,
      "semi_major_axis_km": 6917.892789617861,
      "eccentricity": 0.00010662,
      "inclination_deg": 53.2179,
      "raan_deg": 168.7911,
      "arg_perigee_deg": 103.3117,
      "mean_anomaly_deg": 256.7995,
      "mean_motion_rev_day": 15.08835943
    },
    {
      "epoch": "2026-03-31T11:18:47.087712Z",
      "apogee_km": 540.2015840394006,
      "perigee_km": 539.2585404014781,
      "latitude_deg": -5.393319949234627e-06,
      "longitude_deg": 167.868116937263,
      "height_km": 540.7600367273019,
      "semi_major_axis_km": 6917.867062220439,
      "eccentricity": 6.816e-05,
      "inclination_deg": 53.2164,
      "raan_deg": 166.4126,
      "arg_perigee_deg": 106.438,
      "mean_anomaly_deg": 253.6687,
      "mean_motion_rev_day": 15.0884436
    },
    {
      "epoch": "2026-04-01T11:09:33.848640Z",
      "apogee_km": 540.4716038382558,
      "perigee_km": 539.0368331995351,
      "latitude_deg": 1.4250767658343582e-06,
      "longitude_deg": 164.73185245733504,
      "height_km": 540.7433005532847,
      "semi_major_axis_km": 6917.891218518896,
      "eccentricity": 0.0001037,
      "inclination_deg": 53.2173,
      "raan_deg": 161.9505,
      "arg_perigee_deg": 97.4436,
      "mean_anomaly_deg": 262.6674,
      "mean_motion_rev_day": 15.08836457
    },
    {
      "epoch": "2026-04-02T11:00:21.032928Z",
      "apogee_km": 540.5149718140165,
      "perigee_km": 538.9656440121362,
      "latitude_deg": 1.3559354934740722e-06,
      "longitude_deg": 161.59461369101314,
      "height_km": 540.7540927227905,
      "semi_major_axis_km": 6917.877307913076,
      "eccentricity": 0.00011198,
      "inclination_deg": 53.2169,
      "raan_deg": 157.4892,
      "arg_perigee_deg": 98.7457,
      "mean_anomaly_deg": 261.3662,
      "mean_motion_rev_day": 15.08841008
    },
    {
      "epoch": "2026-04-03T10:51:07.385184Z",
      "apogee_km": 540.3216260437421,
      "perigee_km": 539.1188873810906,
      "latitude_deg": 3.0076858212771812e-05,
      "longitude_deg": 158.46217198693972,
      "height_km": 540.6466878311421,
      "semi_major_axis_km": 6917.8572567124165,
      "eccentricity": 8.693e-05,
      "inclination_deg": 53.217,
      "raan_deg": 153.0292,
      "arg_perigee_deg": 92.8694,
      "mean_anomaly_deg": 267.2398,
      "mean_motion_rev_day": 15.08847568
    },
    {
      "epoch": "2026-04-04T04:20:22.549920Z",
      "apogee_km": 540.3587494534204,
      "perigee_km": 539.1456284052492,
      "latitude_deg": 4.278292787966215e-05,
      "longitude_deg": -107.83869316418925,
      "height_km": 540.6813957468692,
      "semi_major_axis_km": 6917.8891889293345,
      "eccentricity": 8.768e-05,
      "inclination_deg": 53.2177,
      "raan_deg": 149.7597,
      "arg_perigee_deg": 93.1018,
      "mean_anomaly_deg": 267.0075,
      "mean_motion_rev_day": 15.08837121
    }
  ]
}